NORAD_CAT_ID,OBJECT_NAME,OBJECT_TYPE,EPOCH,MEAN_MOTION,ECCENTRICITY,INCLINATION,RA_OF_ASC_NODE,ARG_OF_PERICENTER,MEAN_ANOMALY,BSTAR,MEAN_MOTION_DOT,MEAN_MOTION_DDOT,TLE_LINE0,TLE_LINE1,TLE_LINE2,SEMIMAJOR_AXIS,PERIOD,APOGEE,PERIGEE,DECAYED
51118.0,STARLINK-3394,PAYLOAD,2023-01-04 13:20:12,15.08841866,0.0002804,53.2177,97.1682,32.3975,327.7188,0.00019778,2.861e-05,0.0,0 STARLINK-3394,1 51118U 22005Q   23004.55569798  .00002861  00000-0  19778-3 0  9990,2 51118  53.2177  97.1682 0002804  32.3975 327.7188 15.08841866 54843,6917.875,95.437,541.679,537.8,0.0
51118.0,STARLINK-3394,PAYLOAD,2023-01-05 06:49:27,15.088227800000002,0.0002898999999999,53.2193,93.8978,40.0073,320.1132,-0.0001416,-2.541e-05,0.0,0 STARLINK-3394,1 51118U 22005Q   23005.28435161 -.00002541  00000-0 -14160-3 0  9994,2 51118  53.2193  93.8978 0002899  40.0073 320.1132 15.08822780 54953,6917.933000000001,95.439,541.804,537.793,0.0
51118.0,STARLINK-3394,PAYLOAD,2023-01-06 05:04:52,15.08837936,0.0002618,53.2185,89.7348,33.4723,326.6434,0.0003083,4.621e-05,0.0,0 STARLINK-3394,1 51118U 22005Q   23006.21171398  .00004621  00000-0  30830-3 0  9998,2 51118  53.2185  89.7348 0002618  33.4723 326.6434 15.08837936 55097,6917.887,95.438,541.563,537.941,0.0
51118.0,STARLINK-3394,PAYLOAD,2023-01-06 14:37:10,15.0885398,0.0002597,53.217,87.9506,33.2288,326.8867,0.00093341,0.00014604,0.0,0 STARLINK-3394,1 51118U 22005Q   23006.60915240  .00014604  00000-0  93341-3 0  9991,2 51118  53.2170  87.9506 0002597  33.2288 326.8867 15.08853980 55153,6917.838000000002,95.437,541.499,537.906,0.0
51118.0,STARLINK-3394,PAYLOAD,2023-01-07 00:09:29,15.08843206,0.0003211,53.2137,86.1675,41.6753,318.4483,0.00028072,4.183e-05,0.0,0 STARLINK-3394,1 51118U 22005Q   23007.00659619  .00004183  00000-0  28072-3 0  9991,2 51118  53.2137  86.1675 0003211  41.6753 318.4483 15.08843206 55216,6917.871,95.437,541.957,537.514,0.0
51118.0,STARLINK-3394,PAYLOAD,2023-01-07 04:55:39,15.0883168,0.0002086,53.2195,85.2766,22.5342,337.5741,-0.00019987,-3.467e-05,0.0,0 STARLINK-3394,1 51118U 22005Q   23007.20531710 -.00003467  00000-0 -19987-3 0  9995,2 51118  53.2195  85.2766 0002086  22.5342 337.5741 15.08831680 54134,6917.906,95.438,541.214,538.328,0.0
51118.0,STARLINK-3394,PAYLOAD,2023-01-07 11:17:12,15.08830211,0.000218,53.2185,84.0863,24.9949,335.1148,4.8576e-05,4.85e-06,0.0,0 STARLINK-3394,1 51118U 22005Q   23007.47028007  .00000485  00000-0  48576-4 0  9996,2 51118  53.2185  84.0863 0002180  24.9949 335.1148 15.08830211 55283,6917.91,95.438,541.283,538.2669999999998,0.0
51118.0,STARLINK-3394,PAYLOAD,2023-01-07 14:27:58,15.08836239,0.0002441,53.2165,83.4906,34.4168,325.6982,0.00038198,5.796e-05,0.0,0 STARLINK-3394,1 51118U 22005Q   23007.60276058  .00005796  00000-0  38198-3 0  9990,2 51118  53.2165  83.4906 0002441  34.4168 325.6982 15.08836239 54196,6917.892,95.438,541.446,538.068,0.0
51118.0,STARLINK-3394,PAYLOAD,2023-01-08 11:07:59,15.08855732,0.0002464,53.216,79.6243,42.3969,317.7213,0.00085858,0.00013409,0.0,0 STARLINK-3394,1 51118U 22005Q   23008.46387929  .00013409  00000-0  85858-3 0  9990,2 51118  53.2160  79.6243 0002464  42.3969 317.7213 15.08855732 55430,6917.831999999999,95.437,541.4019999999998,537.993,0.0
51118.0,STARLINK-3394,PAYLOAD,2023-01-09 04:37:13,15.08852887,0.0002091,53.217,76.3542,30.6058,329.5055,0.00048896,7.505e-05,0.0,0 STARLINK-3394,1 51118U 22005Q   23009.19251690  .00007505  00000-0  48896-3 0  9997,2 51118  53.2170  76.3542 0002091  30.6058 329.5055 15.08852887 55547,6917.840999999999,95.437,541.153,538.259,0.0
51118.0,STARLINK-3394,PAYLOAD,2023-01-10 04:28:00,15.08845413,0.0002092,53.2148,71.8918,47.49,312.6269,0.00035437,5.357e-05,0.0,0 STARLINK-3394,1 51118U 22005Q   23010.18611720  .00005357  00000-0  35437-3 0  9992,2 51118  53.2148  71.8918 0002092  47.4900 312.6269 15.08845413 55695,6917.864000000001,95.437,541.1759999999998,538.2819999999998,0.0
51118.0,STARLINK-3394,PAYLOAD,2023-01-10 10:49:33,15.08844193,0.0002014,53.2161,70.7026,44.2108,315.9045,4.870000000000001e-05,4.87e-06,0.0,0 STARLINK-3394,1 51118U 22005Q   23010.45107673  .00000487  00000-0  48700-4 0  9996,2 51118  53.2161  70.7026 0002014  44.2108 315.9045 15.08844193 54621,6917.868,95.437,541.126,538.339,0.0
51118.0,STARLINK-3394,PAYLOAD,2023-01-11 10:40:18,15.08862729,0.0002304,53.2166,66.2402,83.0269,277.0985,0.00044156,6.751e-05,0.0,0 STARLINK-3394,1 51118U 22005Q   23011.44466173  .00006751  00000-0  44156-3 0  9999,2 51118  53.2166  66.2402 0002304  83.0269 277.0985 15.08862729 55880,6917.811,95.436,541.27,538.082,0.0
51118.0,STARLINK-3394,PAYLOAD,2023-01-11 12:15:42,15.08841122,0.0001776,53.2152,65.9441,55.5081,304.6079,-2.5889e-05,-7.000000000000002e-06,0.0,0 STARLINK-3394,1 51118U 22005Q   23011.51091027 -.00000700  00000-0 -25889-4 0  9992,2 51118  53.2152  65.9441 0001776  55.5081 304.6079 15.08841122 54785,6917.877,95.437,540.971,538.513,0.0
51118.0,STARLINK-3394,PAYLOAD,2023-01-11 20:12:38,15.08830472,0.0001744,53.2171,64.4579,60.5741,299.5425,-0.00026252,-4.463e-05,0.0,0 STARLINK-3394,1 51118U 22005Q   23011.84211428 -.00004463  00000-0 -26252-3 0  9991,2 51118  53.2171  64.4579 0001744  60.5741 299.5425 15.08830472 54835,6917.91,95.438,540.981,538.568,0.0
51118.0,STARLINK-3394,PAYLOAD,2023-01-12 04:09:34,15.08827269,0.0001826,53.2172,62.9715,65.7331,294.3852,-0.00026734,-4.539e-05,0.0,0 STARLINK-3394,1 51118U 22005Q   23012.17331807 -.00004539  00000-0 -26734-3 0  9991,2 51118  53.2172  62.9715 0001826  65.7331 294.3852 15.08827269 55999,6917.919,95.438,541.048,538.521,0.0
51118.0,STARLINK-3394,PAYLOAD,2023-01-12 20:03:26,15.08836836,0.000171,53.2168,59.9983,73.1066,287.0114,1.5642e-05,-3.9e-07,0.0,0 STARLINK-3394,1 51118U 22005Q   23012.83571798 -.00000039  00000-0  15642-4 0  9996,2 51118  53.2168  59.9983 0001710  73.1066 287.0114 15.08836836 56099,6917.89,95.438,540.938,538.572,0.0
51118.0,STARLINK-3394,PAYLOAD,2023-01-13 10:21:54,15.08839182,0.0001681,53.2166,57.322,80.7764,279.3419,0.00058836,9.088e-05,0.0,0 STARLINK-3394,1 51118U 22005Q   23013.43188373  .00009088  00000-0  58836-3 0  9999,2 51118  53.2166  57.3220 0001681  80.7764 279.3419 15.08839182 55075,6917.883000000001,95.438,540.911,538.585,0.0
51118.0,STARLINK-3394,PAYLOAD,2023-01-13 19:54:13,15.08843706,0.0001613,53.2158,55.5399,84.8032,275.3144,0.00052084,8.012e-05,0.0,0 STARLINK-3394,1 51118U 22005Q   23013.82932372  .00008012  00000-0  52084-3 0  9993,2 51118  53.2158  55.5399 0001613  84.8032 275.3144 15.08843706 55136,6917.869000000001,95.437,540.85,538.618,0.0
51118.0,STARLINK-3394,PAYLOAD,2023-01-14 02:15:46,15.08839965,0.0001595,53.2163,54.3485,87.7237,272.3938,0.00032174,4.836e-05,0.0,0 STARLINK-3394,1 51118U 22005Q   23014.09428442  .00004836  00000-0  32174-3 0  9999,2 51118  53.2163  54.3485 0001595  87.7237 272.3938 15.08839965 56280,6917.88,95.438,540.849,538.6419999999999,0.0
51118.0,STARLINK-3394,PAYLOAD,2023-01-15 02:06:33,15.08837518,0.0002072,53.2178,49.8886,78.6094,281.513,0.00011314,1.513e-05,0.0,0 STARLINK-3394,1 51118U 22005Q   23015.08788908  .00001513  00000-0  11314-3 0  9997,2 51118  53.2178  49.8886 0002072  78.6094 281.5130 15.08837518 56436,6917.888000000001,95.438,541.186,538.32,0.0
51118.0,STARLINK-3394,PAYLOAD,2023-01-15 11:38:52,15.08841933,0.0001931,53.2166,48.106,76.4512,283.6695,0.0002106,3.065e-05,0.0,0 STARLINK-3394,1 51118U 22005Q   23015.48532749  .00003065  00000-0  21060-3 0  9994,2 51118  53.2166  48.1060 0001931  76.4512 283.6695 15.08841933 55381,6917.874,95.437,541.075,538.404,0.0
51118.0,STARLINK-3394,PAYLOAD,2023-01-15 19:35:47,15.08842962,0.000197,53.2162,46.6183,77.9047,282.2166,0.0002478,3.658e-05,0.0,0 STARLINK-3394,1 51118U 22005Q   23015.81652771  .00003658  00000-0  24780-3 0  9999,2 51118  53.2162  46.6183 0001970  77.9047 282.2166 15.08842962 55435,6917.871,95.437,541.099,538.374,0.0
51118.0,STARLINK-3394,PAYLOAD,2023-01-16 05:08:06,15.08857967,0.0001441999999999,53.2165,44.8323,88.5016,271.6142,0.00076577,0.00011926,0.0,0 STARLINK-3394,1 51118U 22005Q   23016.21396135  .00011926  00000-0  76577-3 0  9991,2 51118  53.2165  44.8323 0001442  88.5016 271.6142 15.08857967 56609,6917.825,95.436,540.688,538.693,0.0
51118.0,STARLINK-3394,PAYLOAD,2023-01-16 08:18:52,15.08872793,0.0001394,53.2168,44.2371,87.2138,272.9013,0.0012242,0.00019266,0.0,0 STARLINK-3394,1 51118U 22005Q   23016.34643877  .00019266  00000-0  12242-2 0  9996,2 51118  53.2168  44.2371 0001394  87.2138 272.9013 15.08872793 55510,6917.78,95.435,540.609,538.681,0.0
51118.0,STARLINK-3394,PAYLOAD,2023-01-16 21:01:57,15.08844359,9.7e-05,53.218,41.8585,96.9974,263.1129,0.00014364,1.999e-05,0.0,0 STARLINK-3394,1 51118U 22005Q   23016.87636151  .00001999  00000-0  14364-3 0  9993,2 51118  53.2180  41.8585 0000970  96.9974 263.1129 15.08844359 56707,6917.866999999999,95.437,540.403,539.061,0.0
51118.0,STARLINK-3394,PAYLOAD,2023-01-17 01:48:07,15.08814384,0.0001467,53.2168,40.9674,83.5036,276.6123,-0.00070651,-0.00011507,0.0,0 STARLINK-3394,1 51118U 22005Q   23017.07509123 -.00011507  00000-0 -70651-3 0  9993,2 51118  53.2168  40.9674 0001467  83.5036 276.6123 15.08814384 56736,6917.959,95.439,540.839,538.809,0.0
51118.0,STARLINK-3394,PAYLOAD,2023-01-17 08:09:40,15.08815342,0.0001438,53.2172,39.7783,95.4497,264.6659,-0.0004784,-7.888e-05,0.0,0 STARLINK-3394,1 51118U 22005Q   23017.34005445 -.00007888  00000-0 -47840-3 0  9992,2 51118  53.2172  39.7783 0001438  95.4497 264.6659 15.08815342 55666,6917.956,95.439,540.816,538.826,0.0
51118.0,STARLINK-3394,PAYLOAD,2023-01-18 06:25:05,15.0886875,0.0001529,53.2173,35.6152,106.4003,253.7158,0.0025038,0.00039817,0.0,0 STARLINK-3394,1 51118U 22005Q   23018.26741991  .00039817  00000-0  25038-2 0  9996,2 51118  53.2173  35.6152 0001529 106.4003 253.7158 15.08868750 56912,6917.793000000001,95.436,540.715,538.6,0.0
